{"type": "FeatureCollection", "features": [ {"type": "Feature", "properties": {"norad_id": 35777, "name": "COSMOS 2251 DEB", "group": "cosmos-2251-debris", "lat": -30.611283779241656, "lon": -69.27816835742401, "alt_km": 1339.393847957621, "timestamp": "2025-12-26T13:39:19.376714+00:00", "meta": {"OBJECT_NAME": "COSMOS 2251 DEB", "OBJECT_ID": "1993-036ARX", "EPOCH": "2025-12-24T14:23:44.831616", "MEAN_MOTION": 13.413075, "ECCENTRICITY": 0.04517519, "INCLINATION": 73.7706, "RA_OF_ASC_NODE": 303.7897, "ARG_OF_PERICENTER": 196.885, "MEAN_ANOMALY": 342.3935, "EPHEMERIS_TYPE": 0, "CLASSIFICATION_TYPE": "U", "NORAD_CAT_ID": 35777, "ELEMENT_SET_NO": 999, "REV_AT_EPOCH": 79843, "BSTAR": 0.00021081744, "MEAN_MOTION_DOT": 1.91e-06, "MEAN_MOTION_DDOT": 0}, "tle": {"line1": "1 35777U 93036ARX 25358.59982444  .00000191  00000+0  21082-3 0  9994", "line2": "2 35777  73.7706 303.7897 0451751 196.8850 342.3935 13.41307500798432"}}, "geometry": {"type": "Point", "coordinates": [-69.27816835742401, -30.611283779241656]}}, {"type": "Feature", "properties": {"norad_id": 35784, "name": "COSMOS 2251 DEB", "group": "cosmos-2251-debris", "lat": -5.952299944256881, "lon": -114.54101862069696, "alt_km": 699.3761517542398, "timestamp": "2025-12-26T13:39:19.376725+00:00", "meta": {"OBJECT_NAME": "COSMOS 2251 DEB", "OBJECT_ID": "1993-036ASE", "EPOCH": "2025-12-17T23:28:57.859680", "MEAN_MOTION": 14.50055355, "ECCENTRICITY": 0.00415956, "INCLINATION": 74.0403, "RA_OF_ASC_NODE": 79.8718, "ARG_OF_PERICENTER": 209.9484, "MEAN_ANOMALY": 149.9297, "EPHEMERIS_TYPE": 0, "CLASSIFICATION_TYPE": "U", "NORAD_CAT_ID": 35784, "ELEMENT_SET_NO": 999, "REV_AT_EPOCH": 65782, "BSTAR": 0.00024795111, "MEAN_MOTION_DOT": 9.44e-06, "MEAN_MOTION_DDOT": 0}, "tle": {"line1": "1 35784U 93036ASE 25351.97844745  .00000944  00000+0  24795-3 0  9998", "line2": "2 35784  74.0403  79.8718 0041595 209.9484 149.9297 14.50055355657829"}}, "geometry": {"type": "Point", "coordinates": [-114.54101862069696, -5.952299944256881]}}, {"type": "Feature", "properties": {"norad_id": 35786, "name": "COSMOS 2251 DEB", "group": "cosmos-2251-debris", "lat": -12.090251475749795, "lon": -159.4030309499628, "alt_km": 661.5528634635648, "timestamp": "2025-12-26T13:39:19.376736+00:00", "meta": {"OBJECT_NAME": "COSMOS 2251 DEB", "OBJECT_ID": "1993-036ASG", "EPOCH": "2025-12-26T01:19:16.036608", "MEAN_MOTION": 14.66353494, "ECCENTRICITY": 0.00330564, "INCLINATION": 74.0139, "RA_OF_ASC_NODE": 18.068, "ARG_OF_PERICENTER": 144.2742, "MEAN_ANOMALY": 216.0648, "EPHEMERIS_TYPE": 0, "CLASSIFICATION_TYPE": "U", "NORAD_CAT_ID": 35786, "ELEMENT_SET_NO": 999, "REV_AT_EPOCH": 73603, "BSTAR": 0.00088717905, "MEAN_MOTION_DOT": 4.912e-05, "MEAN_MOTION_DDOT": 0}, "tle": {"line1": "1 35786U 93036ASG 25360.05504672  .00004912  00000+0  88718-3 0  9995", "line2": "2 35786  74.0139  18.0680 0033056 144.2742 216.0648 14.66353494736030"}}, "geometry": {"type": "Point", "coordinates": [-159.4030309499628, -12.090251475749795]}}, {"type": "Feature", "properties": {"norad_id": 35789, "name": "COSMOS 2251 DEB", "group": "cosmos-2251-debris", "lat": 1.9609799565444443, "lon": 78.42556960464188, "alt_km": 808.2945263672727, "timestamp": "2025-12-26T13:39:19.376746+00:00", "meta": {"OBJECT_NAME": "COSMOS 2251 DEB", "OBJECT_ID": "1993-036ASK", "EPOCH": "2025-12-25T00:02:45.656448", "MEAN_MOTION": 14.35995111, "ECCENTRICITY": 0.00478637, "INCLINATION": 74.0386, "RA_OF_ASC_NODE": 261.8623, "ARG_OF_PERICENTER": 358.287, "MEAN_ANOMALY": 1.8111, "EPHEMERIS_TYPE": 0, "CLASSIFICATION_TYPE": "U", "NORAD_CAT_ID": 35789, "ELEMENT_SET_NO": 999, "REV_AT_EPOCH": 61403, "BSTAR": 0.00012355223, "MEAN_MOTION_DOT": 3.37e-06, "MEAN_MOTION_DDOT": 0}, "tle": {"line1": "1 35789U 93036ASK 25359.00191732  .00000337  00000+0  12355-3 0  9991", "line2": "2 35789  74.0386 261.8623 0047863 358.2870   1.8111 14.35995111614036"}}, "geometry": {"type": "Point", "coordinates": [78.42556960464188, 1.9609799565444443]}}, {"type": "Feature", "properties": {"norad_id": 35793, "name": "COSMOS 2251 DEB", "group": "cosmos-2251-debris", "lat": -20.83756625296819, "lon": -140.74270892204555, "alt_km": 638.4795862161182, "timestamp": "2025-12-26T13:39:19.376757+00:00", "meta": {"OBJECT_NAME": "COSMOS 2251 DEB", "OBJECT_ID": "1993-036ASP", "EPOCH": "2025-12-22T19:59:17.179008", "MEAN_MOTION": 14.78898886, "ECCENTRICITY": 0.00021779, "INCLINATION": 74.0403, "RA_OF_ASC_NODE": 40.3457, "ARG_OF_PERICENTER": 77.0765, "MEAN_ANOMALY": 40.8773, "EPHEMERIS_TYPE": 0, "CLASSIFICATION_TYPE": "U", "NORAD_CAT_ID": 35793, "ELEMENT_SET_NO": 999, "REV_AT_EPOCH": 65946, "BSTAR": 0.0016902624, "MEAN_MOTION_DOT": 0.0001245, "MEAN_MOTION_DDOT": 0}, "tle": {"line1": "1 35793U 93036ASP 25356.83283772  .00012450  00000+0  16903-2 0  9991", "line2": "2 35793  74.0403  40.3457 0002177  77.0765  40.8773 14.78898886659465"}}, "geometry": {"type": "Point", "coordinates": [-140.74270892204555, -20.83756625296819]}}, {"type": "Feature", "properties": {"norad_id": 35824, "name": "COSMOS 2251 DEB", "group": "cosmos-2251-debris", "lat": 41.28262819001893, "lon": 39.764027709622326, "alt_km": 850.5840484272248, "timestamp": "2025-12-26T13:39:19.376766+00:00", "meta": {"OBJECT_NAME": "COSMOS 2251 DEB", "OBJECT_ID": "1993-036ASW", "EPOCH": "2025-12-22T19:31:45.102144", "MEAN_MOTION": 13.88451582, "ECCENTRICITY": 0.02474981, "INCLINATION": 73.8455, "RA_OF_ASC_NODE": 31.474, "ARG_OF_PERICENTER": 115.7236, "MEAN_ANOMALY": 246.9666, "EPHEMERIS_TYPE": 0, "CLASSIFICATION_TYPE": "U", "NORAD_CAT_ID": 35824, "ELEMENT_SET_NO": 999, "REV_AT_EPOCH": 84367, "BSTAR": 0.00094378544, "MEAN_MOTION_DOT": 1.423e-05, "MEAN_MOTION_DDOT": 0}, "tle": {"line1": "1 35824U 93036ASW 25356.81371646  .00001423  00000+0  94379-3 0  9994", "line2": "2 35824  73.8455  31.4740 0247498 115.7236 246.9666 13.88451582843676"}}, "geometry": {"type": "Point", "coordinates": [39.764027709622326, 41.28262819001893]}}, {"type": "Feature", "properties": {"norad_id": 35825, "name": "COSMOS 2251 DEB", "group": "cosmos-2251-debris", "lat": -73.00985940272373, "lon": 51.152384887672156, "alt_km": 880.020097361441, "timestamp": "2025-12-26T13:39:19.376777+00:00", "meta": {"OBJECT_NAME": "COSMOS 2251 DEB", "OBJECT_ID": "1993-036ASX", "EPOCH": "2025-12-14T02:36:29.406816", "MEAN_MOTION": 13.70963524, "ECCENTRICITY": 0.03526119, "INCLINATION": 74.113, "RA_OF_ASC_NODE": 140.3902, "ARG_OF_PERICENTER": 235.9093, "MEAN_ANOMALY": 120.8102, "EPHEMERIS_TYPE": 0, "CLASSIFICATION_TYPE": "U", "NORAD_CAT_ID": 35825, "ELEMENT_SET_NO": 999, "REV_AT_EPOCH": 82527, "BSTAR": 0.0023333684, "MEAN_MOTION_DOT": 3.214e-05, "MEAN_MOTION_DDOT": 0}, "tle": {"line1": "1 35825U 93036ASX 25348.10867369  .00003214  00000+0  23334-2 0  9992", "line2": "2 35825  74.1130 140.3902 0352611 235.9093 120.8102 13.70963524825277"}}, "geometry": {"type": "Point", "coordinates": [51.152384887672156, -73.00985940272373]}}, {"type": "Feature", "properties": {"norad_id": 35829, "name": "COSMOS 2251 DEB", "group": "cosmos-2251-debris", "lat": 1.3111326820209643, "lon": 72.0847797322232, "alt_km": 644.7324072191586, "timestamp": "2025-12-26T13:39:19.376788+00:00", "meta": {"OBJECT_NAME": "COSMOS 2251 DEB", "OBJECT_ID": "1993-036ATB", "EPOCH": "2025-12-17T00:21:46.598688", "MEAN_MOTION": 14.76400839, "ECCENTRICITY": 0.0005573, "INCLINATION": 74.0249, "RA_OF_ASC_NODE": 90.4281, "ARG_OF_PERICENTER": 146.0686, "MEAN_ANOMALY": 214.0846, "EPHEMERIS_TYPE": 0, "CLASSIFICATION_TYPE": "U", "NORAD_CAT_ID": 35829, "ELEMENT_SET_NO": 999, "REV_AT_EPOCH": 87838, "BSTAR": 0.001494418, "MEAN_MOTION_DOT": 0.00010373, "MEAN_MOTION_DDOT": 0}, "tle": {"line1": "1 35829U 93036ATB 25351.01512267  .00010373  00000+0  14944-2 0  9995", "line2": "2 35829  74.0249  90.4281 0005573 146.0686 214.0846 14.76400839878381"}}, "geometry": {"type": "Point", "coordinates": [72.0847797322232, 1.3111326820209643]}}, {"type": "Feature", "properties": {"norad_id": 35830, "name": "COSMOS 2251 DEB", "group": "cosmos-2251-debris", "lat": -35.651890181736924, "lon": 73.25558765128999, "alt_km": 731.5956334341217, "timestamp": "2025-12-26T13:39:19.376798+00:00", "meta": {"OBJECT_NAME": "COSMOS 2251 DEB", "OBJECT_ID": "1993-036ATC", "EPOCH": "2025-12-24T23:32:41.332416", "MEAN_MOTION": 14.24062009, "ECCENTRICITY": 0.01214238, "INCLINATION": 73.8614, "RA_OF_ASC_NODE": 244.1574, "ARG_OF_PERICENTER": 210.1431, "MEAN_ANOMALY": 149.2692, "EPHEMERIS_TYPE": 0, "CLASSIFICATION_TYPE": "U", "NORAD_CAT_ID": 35830, "ELEMENT_SET_NO": 999, "REV_AT_EPOCH": 61438, "BSTAR": 0.0012045296, "MEAN_MOTION_DOT": 2.963e-05, "MEAN_MOTION_DDOT": 0}, "tle": {"line1": "1 35830U 93036ATC 25358.98103394  .00002963  00000+0  12045-2 0  9993", "line2": "2 35830  73.8614 244.1574 0121423 210.1431 149.2692 14.24062009614385"}}, "geometry": {"type": "Point", "coordinates": [73.25558765128999, -35.651890181736924]}}, {"type": "Feature", "properties": {"norad_id": 35834, "name": "COSMOS 2251 DEB", "group": "cosmos-2251-debris", "lat": -44.559025483322145, "lon": 116.41871014653952, "alt_km": 923.5931047395461, "timestamp": "2025-12-26T13:39:19.376809+00:00", "meta": {"OBJECT_NAME": "COSMOS 2251 DEB", "OBJECT_ID": "1993-036ATG", "EPOCH": "2025-12-25T00:59:01.122144", "MEAN_MOTION": 14.12999686, "ECCENTRICITY": 0.01093185, "INCLINATION": 73.934, "RA_OF_ASC_NODE": 282.651, "ARG_OF_PERICENTER": 79.9529, "MEAN_ANOMALY": 296.6913, "EPHEMERIS_TYPE": 0, "CLASSIFICATION_TYPE": "U", "NORAD_CAT_ID": 35834, "ELEMENT_SET_NO": 999, "REV_AT_EPOCH": 66437, "BSTAR": 0.00039327215, "MEAN_MOTION_DOT": 7.52e-06, "MEAN_MOTION_DDOT": 0}, "tle": {"line1": "1 35834U 93036ATG 25359.04098521  .00000752  00000+0  39327-3 0  9997", "line2": "2 35834  73.9340 282.6510 0109318  79.9529 296.6913 14.12999686664375"}}, "geometry": {"type": "Point", "coordinates": [116.41871014653952, -44.559025483322145]}}]}